[{"OBJECT_NAME":"STARLINK-33860","OBJECT_ID":"2025-102M","EPOCH":"2026-03-09T13:22:46.780032","MEAN_MOTION":14.98331259,"ECCENTRICITY":0.0003148,"INCLINATION":70.0011,"RA_OF_ASC_NODE":114.7386,"ARG_OF_PERICENTER":270.8769,"MEAN_ANOMALY":89.2029,"EPHEMERIS_TYPE":0,"CLASSIFICATION_TYPE":"U","NORAD_CAT_ID":64033,"ELEMENT_SET_NO":999,"REV_AT_EPOCH":4594,"BSTAR":6.4188e-5,"MEAN_MOTION_DOT":6.73e-6,"MEAN_MOTION_DDOT":0},{"OBJECT_NAME":"COSMOS 2242","OBJECT_ID":"1993-024A","EPOCH":"2026-03-09T23:17:07.942848","MEAN_MOTION":14.96550444,"ECCENTRICITY":0.00151707,"INCLINATION":82.5157,"RA_OF_ASC_NODE":266.4481,"ARG_OF_PERICENTER":307.8411,"MEAN_ANOMALY":52.1437,"EPHEMERIS_TYPE":0,"CLASSIFICATION_TYPE":"U","NORAD_CAT_ID":22626,"ELEMENT_SET_NO":999,"REV_AT_EPOCH":78043,"BSTAR":0.00021609887,"MEAN_MOTION_DOT":2.488e-5,"MEAN_MOTION_DDOT":0}]
